{
  "type": "FeatureCollection",
  "features": [
    {
      "type": "Feature",
      "properties": {
        "norad_id": 47062,
        "name": "COSMOS 2251 DEB",
        "group": "cosmos-2251-debris",
        "lat": -35.51330396613881,
        "lon": 60.09617705381981,
        "alt_km": 1133.6742744586682,
        "timestamp": "2025-12-16T13:52:37.920859+00:00",
        "meta_object_name": "COSMOS 2251 DEB",
        "meta_object_id": "1993-036BXS",
        "meta_epoch": "2025-12-13T23:56:30.676992",
        "meta_mean_motion": 13.71952164,
        "meta_eccentricity": 0.03233862,
        "meta_inclination": 74.0831,
        "meta_ra_of_asc_node": 76.1003,
        "meta_arg_of_pericenter": 201.6929,
        "meta_mean_anomaly": 337.1469,
        "meta_ephemeris_type": 0,
        "meta_classification_type": "U",
        "meta_norad_cat_id": 47062,
        "meta_element_set_no": 999,
        "meta_rev_at_epoch": 55619,
        "meta_bstar": 0.0017198262,
        "meta_mean_motion_dot": 2.244e-05,
        "meta_mean_motion_ddot": 0,
        "tle_line1": "1 47062U 93036BXS 25347.99757728  .00002244  00000+0  17198-2 0  9994",
        "tle_line2": "2 47062  74.0831  76.1003 0323386 201.6929 337.1469 13.71952164556193"
      },
      "geometry": {
        "type": "Point",
        "coordinates": [
          60.09617705381981,
          -35.51330396613881
        ]
      }
    },
    {
      "type": "Feature",
      "properties": {
        "norad_id": 47068,
        "name": "COSMOS 2251 DEB",
        "group": "cosmos-2251-debris",
        "lat": 56.33924293467779,
        "lon": -9.260958584962154,
        "alt_km": 721.9827194162153,
        "timestamp": "2025-12-16T13:52:37.920869+00:00",
        "meta_object_name": "COSMOS 2251 DEB",
        "meta_object_id": "1993-036BXY",
        "meta_epoch": "2025-12-15T20:48:12.960288",
        "meta_mean_motion": 14.53173456,
        "meta_eccentricity": 0.0018343,
        "meta_inclination": 74.0237,
        "meta_ra_of_asc_node": 197.5628,
        "meta_arg_of_pericenter": 284.345,
        "meta_mean_anomaly": 75.5676,
        "meta_ephemeris_type": 0,
        "meta_classification_type": "U",
        "meta_norad_cat_id": 47068,
        "meta_element_set_no": 999,
        "meta_rev_at_epoch": 61802,
        "meta_bstar": 0.00054584183,
        "meta_mean_motion_dot": 2.238e-05,
        "meta_mean_motion_ddot": 0,
        "tle_line1": "1 47068U 93036BXY 25349.86681667  .00002238  00000+0  54584-3 0  9990",
        "tle_line2": "2 47068  74.0237 197.5628 0018343 284.3450  75.5676 14.53173456618025"
      },
      "geometry": {
        "type": "Point",
        "coordinates": [
          -9.260958584962154,
          56.33924293467779
        ]
      }
    },
    {
      "type": "Feature",
      "properties": {
        "norad_id": 47073,
        "name": "COSMOS 2251 DEB",
        "group": "cosmos-2251-debris",
        "lat": -21.949676228382238,
        "lon": -171.44280120016538,
        "alt_km": 910.3762801841094,
        "timestamp": "2025-12-16T13:52:37.920879+00:00",
        "meta_object_name": "COSMOS 2251 DEB",
        "meta_object_id": "1993-036BYD",
        "meta_epoch": "2025-12-15T07:13:18.345792",
        "meta_mean_motion": 14.04726954,
        "meta_eccentricity": 0.01614948,
        "meta_inclination": 74.0808,
        "meta_ra_of_asc_node": 197.3835,
        "meta_arg_of_pericenter": 235.0635,
        "meta_mean_anomaly": 123.5242,
        "meta_ephemeris_type": 0,
        "meta_classification_type": "U",
        "meta_norad_cat_id": 47073,
        "meta_element_set_no": 999,
        "meta_rev_at_epoch": 60397,
        "meta_bstar": 0.00047491463,
        "meta_mean_motion_dot": 8.3e-06,
        "meta_mean_motion_ddot": 0,
        "tle_line1": "1 47073U 93036BYD 25349.30090678  .00000830  00000+0  47491-3 0  9996",
        "tle_line2": "2 47073  74.0808 197.3835 0161494 235.0635 123.5242 14.04726954603971"
      },
      "geometry": {
        "type": "Point",
        "coordinates": [
          -171.44280120016538,
          -21.949676228382238
        ]
      }
    },
    {
      "type": "Feature",
      "properties": {
        "norad_id": 47074,
        "name": "COSMOS 2251 DEB",
        "group": "cosmos-2251-debris",
        "lat": -13.139557149830631,
        "lon": 125.50865148015103,
        "alt_km": 849.7395907165192,
        "timestamp": "2025-12-16T13:52:37.920889+00:00",
        "meta_object_name": "COSMOS 2251 DEB",
        "meta_object_id": "1993-036BYE",
        "meta_epoch": "2025-12-14T04:11:13.221312",
        "meta_mean_motion": 14.35642167,
        "meta_eccentricity": 0.01443955,
        "meta_inclination": 74.0928,
        "meta_ra_of_asc_node": 306.0867,
        "meta_arg_of_pericenter": 333.9611,
        "meta_mean_anomaly": 42.2812,
        "meta_ephemeris_type": 0,
        "meta_classification_type": "U",
        "meta_norad_cat_id": 47074,
        "meta_element_set_no": 999,
        "meta_rev_at_epoch": 2703,
        "meta_bstar": 0.001977061,
        "meta_mean_motion_dot": 6.399e-05,
        "meta_mean_motion_ddot": 0,
        "tle_line1": "1 47074U 93036BYE 25348.17445858  .00006399  00000+0  19771-2 0  9990",
        "tle_line2": "2 47074  74.0928 306.0867 0144395 333.9611  42.2812 14.35642167 27036"
      },
      "geometry": {
        "type": "Point",
        "coordinates": [
          125.50865148015103,
          -13.139557149830631
        ]
      }
    },
    {
      "type": "Feature",
      "properties": {
        "norad_id": 47116,
        "name": "COSMOS 2251 DEB",
        "group": "cosmos-2251-debris",
        "lat": -7.019144307685302,
        "lon": 54.952071489081945,
        "alt_km": 586.674885811568,
        "timestamp": "2025-12-16T13:52:37.920899+00:00",
        "meta_object_name": "COSMOS 2251 DEB",
        "meta_object_id": "1993-036BYJ",
        "meta_epoch": "2025-12-15T10:35:15.431712",
        "meta_mean_motion": 14.98340246,
        "meta_eccentricity": 0.00212808,
        "meta_inclination": 74.0234,
        "meta_ra_of_asc_node": 235.2363,
        "meta_arg_of_pericenter": 329.1106,
        "meta_mean_anomaly": 207.4112,
        "meta_ephemeris_type": 0,
        "meta_classification_type": "U",
        "meta_norad_cat_id": 47116,
        "meta_element_set_no": 999,
        "meta_rev_at_epoch": 59551,
        "meta_bstar": 0.0012172499,
        "meta_mean_motion_dot": 0.00014561,
        "meta_mean_motion_ddot": 0,
        "tle_line1": "1 47116U 93036BYJ 25349.44115083  .00014561  00000+0  12172-2 0  9990",
        "tle_line2": "2 47116  74.0234 235.2363 0021280 329.1106 207.4112 14.98340246595513"
      },
      "geometry": {
        "type": "Point",
        "coordinates": [
          54.952071489081945,
          -7.019144307685302
        ]
      }
    },
    {
      "type": "Feature",
      "properties": {
        "norad_id": 53093,
        "name": "COSMOS 2251 DEB",
        "group": "cosmos-2251-debris",
        "lat": -45.03668529457302,
        "lon": -82.31422951059278,
        "alt_km": 751.247303990127,
        "timestamp": "2025-12-16T13:52:37.920910+00:00",
        "meta_object_name": "COSMOS 2251 DEB",
        "meta_object_id": "1993-036BYP",
        "meta_epoch": "2025-12-15T21:26:40.049376",
        "meta_mean_motion": 14.41899568,
        "meta_eccentricity": 0.00194377,
        "meta_inclination": 74.0365,
        "meta_ra_of_asc_node": 295.6093,
        "meta_arg_of_pericenter": 12.2432,
        "meta_mean_anomaly": 347.9192,
        "meta_ephemeris_type": 0,
        "meta_classification_type": "U",
        "meta_norad_cat_id": 53093,
        "meta_element_set_no": 999,
        "meta_rev_at_epoch": 17771,
        "meta_bstar": 0.00064361286,
        "meta_mean_motion_dot": 2.086e-05,
        "meta_mean_motion_ddot": 0,
        "tle_line1": "1 53093U 93036BYP 25349.89351909  .00002086  00000+0  64361-3 0  9996",
        "tle_line2": "2 53093  74.0365 295.6093 0019437  12.2432 347.9192 14.41899568177712"
      },
      "geometry": {
        "type": "Point",
        "coordinates": [
          -82.31422951059278,
          -45.03668529457302
        ]
      }
    }
  ]
}